QIANFAN-25              
1 61558U 24185G   25306.43809936  .00000576  00000+0  34406-3 0  9990
2 61558  88.9783  82.7430 0010822  74.8311 285.4068 14.05849842 63840
QIANFAN-26              
1 61559U 24185H   25306.44225164  .00000360  00000+0  34697-3 0  9990
2 61559  88.9781  84.0932 0007264 125.3474 234.8372 13.77777555 63125
QIANFAN-27              
1 61560U 24185J   25306.43678965  .00000662  00000+0  26497-3 0  9996
2 61560  88.9779  81.6618 0009780  68.9383 291.2856 14.27252392 64414
QIANFAN-28              
1 61561U 24185K   25306.43806719  .00001238  00000+0  49419-3 0  9996
2 61561  88.9796  81.6616 0008966  69.4339 290.7816 14.27903143 64422
QIANFAN-29              
1 61562U 24185L   25306.44863671  .00000225  00000+0  33041-3 0  9997
2 61562  88.9757  85.4675 0010810 159.4134 200.7454 13.50990005 62358
QIANFAN-30              
1 61563U 24185M   25306.46712910  .00000199  00000+0  29410-3 0  9994
2 61563  88.9777  84.9755 0008658 143.7103 216.4636 13.49966362 62637
QIANFAN-31              
1 61564U 24185N   25306.45086856  .00000261  00000+0  34501-3 0  9994
2 61564  88.9762  84.8430 0008373 139.4509 220.7271 13.57941455 62691
QIANFAN-32              
1 61565U 24185P   25306.45781433  .00000162  00000+0  23261-3 0  9999
2 61565  88.9820  85.0984 0009775 169.9111 190.2238 13.50717235 62603
