<?xml version="1.0" encoding="UTF-8"?>
<ndm xmlns:xsi="http://www.w3.org/2001/XMLSchema-instance" xsi:noNamespaceSchemaLocation="https://sanaregistry.org/r/ndmxml_unqualified/ndmxml-2.0.0-master-2.0.xsd">
<omm id="CCSDS_OMM_VERS" version="2.0">
<header><CREATION_DATE/><ORIGINATOR/></header><body><segment><metadata><OBJECT_NAME>QIANFAN-25</OBJECT_NAME><OBJECT_ID>2024-185G</OBJECT_ID><CENTER_NAME>EARTH</CENTER_NAME><REF_FRAME>TEME</REF_FRAME><TIME_SYSTEM>UTC</TIME_SYSTEM><MEAN_ELEMENT_THEORY>SGP4</MEAN_ELEMENT_THEORY></metadata><data><meanElements><EPOCH>2025-11-02T10:30:51.784704</EPOCH><MEAN_MOTION>14.05849842</MEAN_MOTION><ECCENTRICITY>.0010822</ECCENTRICITY><INCLINATION>88.9783</INCLINATION><RA_OF_ASC_NODE>82.7430</RA_OF_ASC_NODE><ARG_OF_PERICENTER>74.8311</ARG_OF_PERICENTER><MEAN_ANOMALY>285.4068</MEAN_ANOMALY></meanElements><tleParameters><EPHEMERIS_TYPE>0</EPHEMERIS_TYPE><CLASSIFICATION_TYPE>U</CLASSIFICATION_TYPE><NORAD_CAT_ID>61558</NORAD_CAT_ID><ELEMENT_SET_NO>999</ELEMENT_SET_NO><REV_AT_EPOCH>6384</REV_AT_EPOCH><BSTAR>.34406E-3</BSTAR><MEAN_MOTION_DOT>.576E-5</MEAN_MOTION_DOT><MEAN_MOTION_DDOT>0</MEAN_MOTION_DDOT></tleParameters></data></segment></body></omm>
<omm id="CCSDS_OMM_VERS" version="2.0">
<header><CREATION_DATE/><ORIGINATOR/></header><body><segment><metadata><OBJECT_NAME>QIANFAN-26</OBJECT_NAME><OBJECT_ID>2024-185H</OBJECT_ID><CENTER_NAME>EARTH</CENTER_NAME><REF_FRAME>TEME</REF_FRAME><TIME_SYSTEM>UTC</TIME_SYSTEM><MEAN_ELEMENT_THEORY>SGP4</MEAN_ELEMENT_THEORY></metadata><data><meanElements><EPOCH>2025-11-02T10:36:50.541696</EPOCH><MEAN_MOTION>13.77777555</MEAN_MOTION><ECCENTRICITY>.0007264</ECCENTRICITY><INCLINATION>88.9781</INCLINATION><RA_OF_ASC_NODE>84.0932</RA_OF_ASC_NODE><ARG_OF_PERICENTER>125.3474</ARG_OF_PERICENTER><MEAN_ANOMALY>234.8372</MEAN_ANOMALY></meanElements><tleParameters><EPHEMERIS_TYPE>0</EPHEMERIS_TYPE><CLASSIFICATION_TYPE>U</CLASSIFICATION_TYPE><NORAD_CAT_ID>61559</NORAD_CAT_ID><ELEMENT_SET_NO>999</ELEMENT_SET_NO><REV_AT_EPOCH>6312</REV_AT_EPOCH><BSTAR>.34697E-3</BSTAR><MEAN_MOTION_DOT>.36E-5</MEAN_MOTION_DOT><MEAN_MOTION_DDOT>0</MEAN_MOTION_DDOT></tleParameters></data></segment></body></omm>
<omm id="CCSDS_OMM_VERS" version="2.0">
<header><CREATION_DATE/><ORIGINATOR/></header><body><segment><metadata><OBJECT_NAME>QIANFAN-27</OBJECT_NAME><OBJECT_ID>2024-185J</OBJECT_ID><CENTER_NAME>EARTH</CENTER_NAME><REF_FRAME>TEME</REF_FRAME><TIME_SYSTEM>UTC</TIME_SYSTEM><MEAN_ELEMENT_THEORY>SGP4</MEAN_ELEMENT_THEORY></metadata><data><meanElements><EPOCH>2025-11-02T10:28:58.625760</EPOCH><MEAN_MOTION>14.27252392</MEAN_MOTION><ECCENTRICITY>.000978</ECCENTRICITY><INCLINATION>88.9779</INCLINATION><RA_OF_ASC_NODE>81.6618</RA_OF_ASC_NODE><ARG_OF_PERICENTER>68.9383</ARG_OF_PERICENTER><MEAN_ANOMALY>291.2856</MEAN_ANOMALY></meanElements><tleParameters><EPHEMERIS_TYPE>0</EPHEMERIS_TYPE><CLASSIFICATION_TYPE>U</CLASSIFICATION_TYPE><NORAD_CAT_ID>61560</NORAD_CAT_ID><ELEMENT_SET_NO>999</ELEMENT_SET_NO><REV_AT_EPOCH>6441</REV_AT_EPOCH><BSTAR>.26497E-3</BSTAR><MEAN_MOTION_DOT>.662E-5</MEAN_MOTION_DOT><MEAN_MOTION_DDOT>0</MEAN_MOTION_DDOT></tleParameters></data></segment></body></omm>
<omm id="CCSDS_OMM_VERS" version="2.0">
<header><CREATION_DATE/><ORIGINATOR/></header><body><segment><metadata><OBJECT_NAME>QIANFAN-28</OBJECT_NAME><OBJECT_ID>2024-185K</OBJECT_ID><CENTER_NAME>EARTH</CENTER_NAME><REF_FRAME>TEME</REF_FRAME><TIME_SYSTEM>UTC</TIME_SYSTEM><MEAN_ELEMENT_THEORY>SGP4</MEAN_ELEMENT_THEORY></metadata><data><meanElements><EPOCH>2025-11-02T10:30:49.005216</EPOCH><MEAN_MOTION>14.27903143</MEAN_MOTION><ECCENTRICITY>.0008966</ECCENTRICITY><INCLINATION>88.9796</INCLINATION><RA_OF_ASC_NODE>81.6616</RA_OF_ASC_NODE><ARG_OF_PERICENTER>69.4339</ARG_OF_PERICENTER><MEAN_ANOMALY>290.7816</MEAN_ANOMALY></meanElements><tleParameters><EPHEMERIS_TYPE>0</EPHEMERIS_TYPE><CLASSIFICATION_TYPE>U</CLASSIFICATION_TYPE><NORAD_CAT_ID>61561</NORAD_CAT_ID><ELEMENT_SET_NO>999</ELEMENT_SET_NO><REV_AT_EPOCH>6442</REV_AT_EPOCH><BSTAR>.49419E-3</BSTAR><MEAN_MOTION_DOT>.1238E-4</MEAN_MOTION_DOT><MEAN_MOTION_DDOT>0</MEAN_MOTION_DDOT></tleParameters></data></segment></body></omm>
<omm id="CCSDS_OMM_VERS" version="2.0">
<header><CREATION_DATE/><ORIGINATOR/></header><body><segment><metadata><OBJECT_NAME>QIANFAN-29</OBJECT_NAME><OBJECT_ID>2024-185L</OBJECT_ID><CENTER_NAME>EARTH</CENTER_NAME><REF_FRAME>TEME</REF_FRAME><TIME_SYSTEM>UTC</TIME_SYSTEM><MEAN_ELEMENT_THEORY>SGP4</MEAN_ELEMENT_THEORY></metadata><data><meanElements><EPOCH>2025-11-02T10:46:02.211744</EPOCH><MEAN_MOTION>13.50990005</MEAN_MOTION><ECCENTRICITY>.001081</ECCENTRICITY><INCLINATION>88.9757</INCLINATION><RA_OF_ASC_NODE>85.4675</RA_OF_ASC_NODE><ARG_OF_PERICENTER>159.4134</ARG_OF_PERICENTER><MEAN_ANOMALY>200.7454</MEAN_ANOMALY></meanElements><tleParameters><EPHEMERIS_TYPE>0</EPHEMERIS_TYPE><CLASSIFICATION_TYPE>U</CLASSIFICATION_TYPE><NORAD_CAT_ID>61562</NORAD_CAT_ID><ELEMENT_SET_NO>999</ELEMENT_SET_NO><REV_AT_EPOCH>6235</REV_AT_EPOCH><BSTAR>.33041E-3</BSTAR><MEAN_MOTION_DOT>.225E-5</MEAN_MOTION_DOT><MEAN_MOTION_DDOT>0</MEAN_MOTION_DDOT></tleParameters></data></segment></body></omm>
<omm id="CCSDS_OMM_VERS" version="2.0">
<header><CREATION_DATE/><ORIGINATOR/></header><body><segment><metadata><OBJECT_NAME>QIANFAN-30</OBJECT_NAME><OBJECT_ID>2024-185M</OBJECT_ID><CENTER_NAME>EARTH</CENTER_NAME><REF_FRAME>TEME</REF_FRAME><TIME_SYSTEM>UTC</TIME_SYSTEM><MEAN_ELEMENT_THEORY>SGP4</MEAN_ELEMENT_THEORY></metadata><data><meanElements><EPOCH>2025-11-02T11:12:39.954240</EPOCH><MEAN_MOTION>13.49966362</MEAN_MOTION><ECCENTRICITY>.0008658</ECCENTRICITY><INCLINATION>88.9777</INCLINATION><RA_OF_ASC_NODE>84.9755</RA_OF_ASC_NODE><ARG_OF_PERICENTER>143.7103</ARG_OF_PERICENTER><MEAN_ANOMALY>216.4636</MEAN_ANOMALY></meanElements><tleParameters><EPHEMERIS_TYPE>0</EPHEMERIS_TYPE><CLASSIFICATION_TYPE>U</CLASSIFICATION_TYPE><NORAD_CAT_ID>61563</NORAD_CAT_ID><ELEMENT_SET_NO>999</ELEMENT_SET_NO><REV_AT_EPOCH>6263</REV_AT_EPOCH><BSTAR>.2941E-3</BSTAR><MEAN_MOTION_DOT>.199E-5</MEAN_MOTION_DOT><MEAN_MOTION_DDOT>0</MEAN_MOTION_DDOT></tleParameters></data></segment></body></omm>
<omm id="CCSDS_OMM_VERS" version="2.0">
<header><CREATION_DATE/><ORIGINATOR/></header><body><segment><metadata><OBJECT_NAME>QIANFAN-31</OBJECT_NAME><OBJECT_ID>2024-185N</OBJECT_ID><CENTER_NAME>EARTH</CENTER_NAME><REF_FRAME>TEME</REF_FRAME><TIME_SYSTEM>UTC</TIME_SYSTEM><MEAN_ELEMENT_THEORY>SGP4</MEAN_ELEMENT_THEORY></metadata><data><meanElements><EPOCH>2025-11-02T10:49:15.043584</EPOCH><MEAN_MOTION>13.57941455</MEAN_MOTION><ECCENTRICITY>.0008373</ECCENTRICITY><INCLINATION>88.9762</INCLINATION><RA_OF_ASC_NODE>84.8430</RA_OF_ASC_NODE><ARG_OF_PERICENTER>139.4509</ARG_OF_PERICENTER><MEAN_ANOMALY>220.7271</MEAN_ANOMALY></meanElements><tleParameters><EPHEMERIS_TYPE>0</EPHEMERIS_TYPE><CLASSIFICATION_TYPE>U</CLASSIFICATION_TYPE><NORAD_CAT_ID>61564</NORAD_CAT_ID><ELEMENT_SET_NO>999</ELEMENT_SET_NO><REV_AT_EPOCH>6269</REV_AT_EPOCH><BSTAR>.34501E-3</BSTAR><MEAN_MOTION_DOT>.261E-5</MEAN_MOTION_DOT><MEAN_MOTION_DDOT>0</MEAN_MOTION_DDOT></tleParameters></data></segment></body></omm>
<omm id="CCSDS_OMM_VERS" version="2.0">
<header><CREATION_DATE/><ORIGINATOR/></header><body><segment><metadata><OBJECT_NAME>QIANFAN-32</OBJECT_NAME><OBJECT_ID>2024-185P</OBJECT_ID><CENTER_NAME>EARTH</CENTER_NAME><REF_FRAME>TEME</REF_FRAME><TIME_SYSTEM>UTC</TIME_SYSTEM><MEAN_ELEMENT_THEORY>SGP4</MEAN_ELEMENT_THEORY></metadata><data><meanElements><EPOCH>2025-11-02T10:59:15.158112</EPOCH><MEAN_MOTION>13.50717235</MEAN_MOTION><ECCENTRICITY>.0009775</ECCENTRICITY><INCLINATION>88.9820</INCLINATION><RA_OF_ASC_NODE>85.0984</RA_OF_ASC_NODE><ARG_OF_PERICENTER>169.9111</ARG_OF_PERICENTER><MEAN_ANOMALY>190.2238</MEAN_ANOMALY></meanElements><tleParameters><EPHEMERIS_TYPE>0</EPHEMERIS_TYPE><CLASSIFICATION_TYPE>U</CLASSIFICATION_TYPE><NORAD_CAT_ID>61565</NORAD_CAT_ID><ELEMENT_SET_NO>999</ELEMENT_SET_NO><REV_AT_EPOCH>6260</REV_AT_EPOCH><BSTAR>.23261E-3</BSTAR><MEAN_MOTION_DOT>.162E-5</MEAN_MOTION_DOT><MEAN_MOTION_DDOT>0</MEAN_MOTION_DDOT></tleParameters></data></segment></body></omm>

</ndm>
